OBJECT_NAME,OBJECT_ID,EPOCH,MEAN_MOTION,ECCENTRICITY,INCLINATION,RA_OF_ASC_NODE,ARG_OF_PERICENTER,MEAN_ANOMALY,EPHEMERIS_TYPE,CLASSIFICATION_TYPE,NORAD_CAT_ID,ELEMENT_SET_NO,REV_AT_EPOCH,BSTAR,MEAN_MOTION_DOT,MEAN_MOTION_DDOT
EXPRESS-AM33,2008-003A,2024-01-20T11:15:26.517024,1.00369605,.0006732,2.5429,86.1386,168.7644,73.8592,0,U,32478,999,4492,0,.145E-5,0
AMC-14,2008-011A,2024-01-19T04:34:42.803616,1.00275753,.0040208,22.8858,31.1092,351.3473,181.8174,0,U,32708,999,5933,0,.64E-6,0
DIRECTV 11,2008-013A,2024-01-20T14:47:11.930784,1.00267945,.0000896,0.0189,69.2000,72.2954,100.5958,0,U,32729,999,3678,0,-.121E-5,0
ICO G1,2008-016A,2024-01-20T14:03:21.663360,1.00271446,.0002313,4.6945,33.7617,270.6573,293.0203,0,U,32763,999,5773,0,-.171E-5,0
VINASAT-1,2008-018A,2024-01-20T12:50:42.624384,1.00270776,.0001839,0.0257,316.2314,0.7561,127.0127,0,U,32767,999,5778,0,-.324E-5,0
STAR ONE C2,2008-018B,2024-01-20T10:51:30.987072,1.00273743,.0002991,0.0406,317.9738,349.5800,269.6158,0,U,32768,999,5785,0,-.272E-5,0
AMOS-3,2008-022A,2024-01-20T05:53:15.764640,1.00270959,.0002661,0.0521,253.4286,19.5878,290.2591,0,U,32794,999,7352,0,-.31E-6,0
SKYNET 5C,2008-030A,2024-01-20T10:58:31.482912,1.00270677,.0004268,1.5241,86.8126,219.5591,319.7557,0,U,33055,999,5714,0,-.137E-5,0
TURKSAT 3A,2008-030B,2024-01-20T11:15:49.074336,1.00272350,.0003021,0.0413,109.1885,195.1854,25.8710,0,U,33056,999,4354,0,.15E-5,0
INTELSAT 25 (IS-25),2008-034A,2024-01-20T10:54:45.921024,1.00271382,.000328,0.4344,90.8423,214.0538,306.6087,0,U,33153,999,5688,0,-.22E-5,0
ECHOSTAR 11,2008-035A,2024-01-20T14:34:25.377024,1.00271319,.0003088,0.0351,283.0372,358.8396,306.1804,0,U,33207,999,4240,0,-.52E-6,0
SUPERBIRD-C2,2008-038A,2024-01-20T14:52:40.066752,1.00270728,.0001971,0.0868,93.9412,198.1818,194.4578,0,U,33274,999,9692,0,-.247E-5,0
INMARSAT 4-F3,2008-039A,2024-01-20T14:49:03.358272,1.00271819,.0002876,3.6039,26.0225,276.6055,301.1168,0,U,33278,999,3773,0,-.138E-5,0
NIMIQ 4,2008-044A,2024-01-20T12:21:23.554080,1.00270790,.0002371,0.0192,65.0994,251.8146,265.8149,0,U,33373,999,5617,0,-.216E-5,0
GALAXY 19 (G-19),2008-045A,2024-01-20T14:53:24.922176,1.00270162,.0002948,0.0323,278.3017,18.1112,309.4103,0,U,33376,999,5609,0,-.134E-5,0
ASTRA 1M,2008-057A,2024-01-20T05:59:54.259584,1.00268476,.0001758,0.0156,71.9375,162.2380,354.0910,0,U,33436,999,3692,0,.124E-5,0
CIEL-2,2008-063A,2024-01-20T14:08:26.961216,1.00270599,.0003009,0.4898,92.8027,198.0628,271.8289,0,U,33453,999,5532,0,.62E-6,0
FENGYUN 2E,2008-066A,2024-01-20T02:39:42.699168,1.00274607,.0001285,7.2111,61.4182,274.8524,269.3549,0,U,33463,999,5528,0,-.207E-5,0
EXPRESS-AM44,2009-007A,2024-01-20T09:17:31.356672,1.00271339,.0004666,1.1927,88.9891,204.7348,313.8819,0,U,33595,999,4347,0,-.86E-6,0
NSS-9,2009-008A,2024-01-20T11:23:02.415264,1.00272338,.0002366,0.0136,10.5746,288.4871,174.0832,0,U,33749,999,5471,0,.76E-6,0
