32478,EXPRESS-AM33,2008,1434.71,2600.0,-,2.54,Inactive,1,GSO,Kazakhstan,Russia/USSR,Commercial,Communications,Proton,1 32478U 08003A   24020.46905691  .00000145  00000+0  00000+0 0  9991,2 32478   2.5429  86.1386 0006732 168.7644  73.8592  1.00369605 44927,1.00369605,0.0006732,GSO
32708,AMC-14,2008,1436.04,-1.0,P,22.89,Active,0,GSO,Kazakhstan,USA,Unknown,Unknown,Proton,1 32708U 08011A   24019.19077319  .00000064  00000+0  00000+0 0  9991,2 32708  22.8858  31.1092 0040208 351.3473 181.8174  1.00275753 59331,1.00275753,0.0040208,GSO
32729,DIRECTV 11,2008,1436.09,5900.0,+,0.02,Active,1,GSO,Sea Launch Platform,USA,Commercial,Communications,Zenit,1 32729U 08013A   24020.61611031 -.00000121  00000+0  00000+0 0  9995,2 32729   0.0189  69.2000 0000896  72.2954 100.5958  1.00267945 36788,1.00267945,8.96e-05,GEO
32763,ICO G1,2008,1436.1,6600.0,+,4.69,Active,1,GSO,USA,USA,Commercial,Communications,Atlas,1 32763U 08016A   24020.58566740 -.00000171  00000+0  00000+0 0  9993,2 32763   4.6945  33.7617 0002313 270.6573 293.0203  1.00271446 57733,1.00271446,0.0002313,GSO
32767,VINASAT-1,2008,1436.11,2600.0,+,0.03,Active,1,GSO,French Guiana,Vietnam,Government,Communications,Ariane,1 32767U 08018A   24020.53521556 -.00000324  00000+0  00000+0 0  9990,2 32767   0.0257 316.2314 0001839   0.7561 127.0127  1.00270776 57788,1.00270776,0.0001839,GEO
32768,STAR ONE C2,2008,1436.13,4100.0,+,0.04,Active,1,GSO,French Guiana,Brazil,Commercial,Communications,Ariane,1 32768U 08018B   24020.45244198 -.00000272  00000+0  00000+0 0  9998,2 32768   0.0406 317.9738 0002991 349.5800 269.6158  1.00273743 57855,1.00273743,0.0002991,GEO
32794,AMOS-3,2008,1436.11,-1.0,+,0.05,Active,1,GSO,Kazakhstan,Israel,Commercial/Military,Communications,Zenit,1 32794U 08022A   24020.24532135 -.00000031  00000+0  00000+0 0  9993,2 32794   0.0521 253.4286 0002661  19.5878 290.2591  1.00270959 73526,1.00270959,0.0002661,GEO
33055,SKYNET 5C,2008,1436.11,4600.0,+,1.52,Active,1,GSO,French Guiana,UK,Military,Communications,Ariane,1 33055U 08030A   24020.45730883 -.00000137  00000+0  00000+0 0  9993,2 33055   1.5241  86.8126 0004268 219.5591 319.7557  1.00270677 57148,1.00270677,0.0004268,GSO
33056,TURKSAT 3A,2008,1436.1,3100.0,+,0.04,Active,1,GSO,French Guiana,Turkey,Commercial,Communications,Ariane,1 33056U 08030B   24020.46931799  .00000150  00000+0  00000+0 0  9998,2 33056   0.0413 109.1885 0003021 195.1854  25.8710  1.00272350 43547,1.0027235,0.0003021,GEO
33153,INTELSAT 25 (IS-25),2008,1436.1,4100.0,+,0.43,Active,1,GSO,French Guiana,INTELSAT,Commercial,Communications,Ariane,1 33153U 08034A   24020.45469816 -.00000220  00000+0  00000+0 0  9994,2 33153   0.4344  90.8423 0003280 214.0538 306.6087  1.00271382 56885,1.00271382,0.000328,GEO
33207,ECHOSTAR 11,2008,1436.11,5500.0,+,0.04,Active,1,GSO,Sea Launch Platform,USA,Commercial,Communications,Zenit,1 33207U 08035A   24020.60723816 -.00000052  00000+0  00000+0 0  9998,2 33207   0.0351 283.0372 0003088 358.8396 306.1804  1.00271319 42408,1.00271319,0.0003088,GEO
33274,SUPERBIRD-C2,2008,1436.11,5000.0,+,0.08,Active,1,GSO,French Guiana,Japan,Commercial,Communications,Ariane,1 33274U 08038A   24020.61990818 -.00000247  00000+0  00000+0 0  9990,2 33274   0.0868  93.9412 0001971 198.1818 194.4578  1.00270728 96926,1.00270728,0.0001971,GEO
33278,INMARSAT 4-F3,2008,1436.1,5960.0,+,3.6,Active,1,GSO,Kazakhstan,INMARSAT,Commercial,Communications,Proton,1 33278U 08039A   24020.61739998 -.00000138  00000+0  00000+0 0  9994,2 33278   3.6039  26.0225 0002876 276.6055 301.1168  1.00271819 37736,1.00271819,0.0002876,GSO
33373,NIMIQ 4,2008,1436.11,4850.0,+,0.02,Active,1,GSO,Kazakhstan,Canada,Commercial,Communications,Proton,1 33373U 08044A   24020.51485595 -.00000216  00000+0  00000+0 0  9993,2 33373   0.0192  65.0994 0002371 251.8146 265.8149  1.00270790 56176,1.0027079,0.0002371,GEO
33376,GALAXY 19 (G-19),2008,1436.12,4690.0,+,0.04,Active,1,GSO,Sea Launch Platform,USA,Commercial,Communications,Zenit,1 33376U 08045A   24020.62042734 -.00000134  00000+0  00000+0 0  9992,2 33376   0.0323 278.3017 0002948  18.1112 309.4103  1.00270162 56096,1.00270162,0.0002948,GEO
33436,ASTRA 1M,2008,1436.15,5345.0,+,0.01,Active,1,GSO,Kazakhstan,SES,Commercial,Communications,Proton,1 33436U 08057A   24020.24993356  .00000124  00000+0  00000+0 0  9993,2 33436   0.0156  71.9375 0001758 162.2380 354.0910  1.00268476 36924,1.00268476,0.0001758,GEO
33453,CIEL-2,2008,1436.09,-1.0,+,0.49,Active,1,GSO,Kazakhstan,Canada,Commercial,Communications,Proton,1 33453U 08063A   24020.58920094  .00000062  00000+0  00000+0 0  9996,2 33453   0.4898  92.8027 0003009 198.0628 271.8289  1.00270599 55328,1.00270599,0.0003009,GEO
33463,FENGYUN 2E,2008,1436.06,-1.0,P,7.21,Active,0,GSO,PRC,China,Unknown,Unknown,Unknown,1 33463U 08066A   24020.11091087 -.00000207  00000+0  00000+0 0  9992,2 33463   7.2111  61.4182 0001285 274.8524 269.3549  1.00274607 55288,1.00274607,0.0001285,GSO
33595,EXPRESS-AM44,2009,1436.11,2532.0,+,1.19,Active,1,GSO,Kazakhstan,Russia/USSR,Commercial,Communications,Proton,1 33595U 09007A   24020.38716848 -.00000086  00000+0  00000+0 0  9997,2 33595   1.1927  88.9891 0004666 204.7348 313.8819  1.00271339 43477,1.00271339,0.0004666,GSO
33749,NSS-9,2009,1436.1,2238.0,+,0.01,Active,1,GSO,French Guiana,SES,Commercial,Communications,Ariane,1 33749U 09008A   24020.47433351  .00000076  00000+0  00000+0 0  9992,2 33749   0.0136  10.5746 0002366 288.4871 174.0832  1.00272338 54714,1.00272338,0.0002366,GEO
